ONEWEB-0629             
1 55170U 23004AG  24284.86582289  .00000061  00000+0  12265-3 0  9990
2 55170  87.9086 128.2463 0001352  93.7580 266.3706 13.17651439 86685
ONEWEB-0631             
1 55171U 23004AH  24284.88075934  .00000166  00000+0  38864-3 0  9996
2 55171  87.9059  97.6825 0001829  69.5519 290.5810 13.18688922 88718
ONEWEB-0709             
1 55172U 23004AJ  24284.86273400 -.00000296  00000+0 -87139-3 0  9998
2 55172  87.8924 143.4752 0002501  65.2696 294.8692 13.11412960 85357
ONEWEB-0710             
1 55173U 23004AK  24284.80423810  .00000213  00000+0  51442-3 0  9990
2 55173  87.9090 128.2811 0001561  81.3571 278.7738 13.17648424 86676
ONEWEB-0711             
1 55174U 23004AL  24284.37613482  .00000395  00000+0  10800-2 0  9992
2 55174  87.8921 143.5411 0000945  54.0492 306.0723 13.11418119 85251
ONEWEB-0713             
1 55175U 23004AM  24284.85256436  .00000079  00000+0  18763-3 0  9994
2 55175  87.8920 143.4543 0001302  74.6073 285.5199 13.11416299 85308
ONEWEB-0715             
1 55176U 23004AN  24284.84748343  .00000321  00000+0  86975-3 0  9997
2 55176  87.8923 143.4559 0001817  67.1549 292.9770 13.11414511 85341
